CCSDS_OMM_VERS = 2.0
CREATION_DATE  = 
ORIGINATOR     = 

OBJECT_NAME    = ATLAS CENTAUR R/B
OBJECT_ID      = 1972-065B
CENTER_NAME    = EARTH
REF_FRAME      = TEME
TIME_SYSTEM    = UTC
MEAN_ELEMENT_THEORY = SGP/SGP4

EPOCH          = 2026-03-28T14:40:54.561504
MEAN_MOTION    = 14.77739665
ECCENTRICITY   = .00333617
INCLINATION    = 35.0008
RA_OF_ASC_NODE = 194.8574
ARG_OF_PERICENTER = 170.5205
MEAN_ANOMALY   = 189.6131

EPHEMERIS_TYPE = 0
CLASSIFICATION_TYPE = U
NORAD_CAT_ID   = 6155
ELEMENT_SET_NO = 999
REV_AT_EPOCH   = 84406
BSTAR          = .19581853E-3
MEAN_MOTION_DOT = .1417E-4
MEAN_MOTION_DDOT = 0

CCSDS_OMM_VERS = 2.0
CREATION_DATE  = 
ORIGINATOR     = 

OBJECT_NAME    = SL-8 R/B
OBJECT_ID      = 1975-112B
CENTER_NAME    = EARTH
REF_FRAME      = TEME
TIME_SYSTEM    = UTC
MEAN_ELEMENT_THEORY = SGP/SGP4

EPOCH          = 2026-03-28T10:09:18.661824
MEAN_MOTION    = 14.38214358
ECCENTRICITY   = .00145466
INCLINATION    = 74.0629
RA_OF_ASC_NODE = 344.4541
ARG_OF_PERICENTER = 69.9467
MEAN_ANOMALY   = 290.3251

EPHEMERIS_TYPE = 0
CLASSIFICATION_TYPE = U
NORAD_CAT_ID   = 8459
ELEMENT_SET_NO = 999
REV_AT_EPOCH   = 63456
BSTAR          = .83277504E-4
MEAN_MOTION_DOT = .227E-5
MEAN_MOTION_DDOT = 0

CCSDS_OMM_VERS = 2.0
CREATION_DATE  = 
ORIGINATOR     = 

OBJECT_NAME    = SL-3 R/B
OBJECT_ID      = 1977-057B
CENTER_NAME    = EARTH
REF_FRAME      = TEME
TIME_SYSTEM    = UTC
MEAN_ELEMENT_THEORY = SGP/SGP4

EPOCH          = 2026-03-28T13:21:58.581792
MEAN_MOTION    = 15.46023240
ECCENTRICITY   = .00067435
INCLINATION    = 97.5795
RA_OF_ASC_NODE = 260.3189
ARG_OF_PERICENTER = 205.9683
MEAN_ANOMALY   = 154.1229

EPHEMERIS_TYPE = 0
CLASSIFICATION_TYPE = U
NORAD_CAT_ID   = 10114
ELEMENT_SET_NO = 999
REV_AT_EPOCH   = 67124
BSTAR          = .32449436E-3
MEAN_MOTION_DOT = .15771E-3
MEAN_MOTION_DDOT = 0

CCSDS_OMM_VERS = 2.0
CREATION_DATE  = 
ORIGINATOR     = 

OBJECT_NAME    = SEASAT 1
OBJECT_ID      = 1978-064A
CENTER_NAME    = EARTH
REF_FRAME      = TEME
TIME_SYSTEM    = UTC
MEAN_ELEMENT_THEORY = SGP/SGP4

EPOCH          = 2026-03-28T10:46:51.272256
MEAN_MOTION    = 14.46175412
ECCENTRICITY   = .00026408
INCLINATION    = 108.0076
RA_OF_ASC_NODE = 164.8616
ARG_OF_PERICENTER = 276.5279
MEAN_ANOMALY   = 83.5566

EPHEMERIS_TYPE = 0
CLASSIFICATION_TYPE = U
NORAD_CAT_ID   = 10967
ELEMENT_SET_NO = 999
REV_AT_EPOCH   = 50922
BSTAR          = .11465147E-3
MEAN_MOTION_DOT = .273E-5
MEAN_MOTION_DDOT = 0

CCSDS_OMM_VERS = 2.0
CREATION_DATE  = 
ORIGINATOR     = 

OBJECT_NAME    = SL-14 R/B
OBJECT_ID      = 1979-011B
CENTER_NAME    = EARTH
REF_FRAME      = TEME
TIME_SYSTEM    = UTC
MEAN_ELEMENT_THEORY = SGP/SGP4

EPOCH          = 2026-03-28T10:14:50.500032
MEAN_MOTION    = 14.91931784
ECCENTRICITY   = .00159873
INCLINATION    = 82.5209
RA_OF_ASC_NODE = 78.7850
ARG_OF_PERICENTER = 0.9771
MEAN_ANOMALY   = 359.1477

EPHEMERIS_TYPE = 0
CLASSIFICATION_TYPE = U
NORAD_CAT_ID   = 11267
ELEMENT_SET_NO = 999
REV_AT_EPOCH   = 53157
BSTAR          = .71729173E-4
MEAN_MOTION_DOT = .752E-5
MEAN_MOTION_DDOT = 0

CCSDS_OMM_VERS = 2.0
CREATION_DATE  = 
ORIGINATOR     = 

OBJECT_NAME    = SL-8 R/B
OBJECT_ID      = 1979-089B
CENTER_NAME    = EARTH
REF_FRAME      = TEME
TIME_SYSTEM    = UTC
MEAN_ELEMENT_THEORY = SGP/SGP4

EPOCH          = 2026-03-28T08:00:36.940896
MEAN_MOTION    = 14.42361887
ECCENTRICITY   = .00167823
INCLINATION    = 74.0685
RA_OF_ASC_NODE = 56.5276
ARG_OF_PERICENTER = 226.8708
MEAN_ANOMALY   = 133.1046

EPHEMERIS_TYPE = 0
CLASSIFICATION_TYPE = U
NORAD_CAT_ID   = 11574
ELEMENT_SET_NO = 999
REV_AT_EPOCH   = 43879
BSTAR          = .11245979E-3
MEAN_MOTION_DOT = .346E-5
MEAN_MOTION_DDOT = 0

CCSDS_OMM_VERS = 2.0
CREATION_DATE  = 
ORIGINATOR     = 

OBJECT_NAME    = SL-14 R/B
OBJECT_ID      = 1980-005B
CENTER_NAME    = EARTH
REF_FRAME      = TEME
TIME_SYSTEM    = UTC
MEAN_ELEMENT_THEORY = SGP/SGP4

EPOCH          = 2026-03-28T14:04:39.425952
MEAN_MOTION    = 14.90951222
ECCENTRICITY   = .00172287
INCLINATION    = 82.5113
RA_OF_ASC_NODE = 289.3069
ARG_OF_PERICENTER = 99.6074
MEAN_ANOMALY   = 260.7093

EPHEMERIS_TYPE = 0
CLASSIFICATION_TYPE = U
NORAD_CAT_ID   = 11672
ELEMENT_SET_NO = 999
REV_AT_EPOCH   = 47930
BSTAR          = .58438195E-4
MEAN_MOTION_DOT = .604E-5
MEAN_MOTION_DDOT = 0

CCSDS_OMM_VERS = 2.0
CREATION_DATE  = 
ORIGINATOR     = 

OBJECT_NAME    = SL-8 R/B
OBJECT_ID      = 1981-003B
CENTER_NAME    = EARTH
REF_FRAME      = TEME
TIME_SYSTEM    = UTC
MEAN_ELEMENT_THEORY = SGP/SGP4

EPOCH          = 2026-03-28T12:56:28.686624
MEAN_MOTION    = 15.11794620
ECCENTRICITY   = .02609279
INCLINATION    = 82.9333
RA_OF_ASC_NODE = 272.5822
ARG_OF_PERICENTER = 113.0656
MEAN_ANOMALY   = 249.8316

EPHEMERIS_TYPE = 0
CLASSIFICATION_TYPE = U
NORAD_CAT_ID   = 12139
ELEMENT_SET_NO = 999
REV_AT_EPOCH   = 31752
BSTAR          = .64441346E-3
MEAN_MOTION_DOT = .25724E-3
MEAN_MOTION_DDOT = 0

CCSDS_OMM_VERS = 2.0
CREATION_DATE  = 
ORIGINATOR     = 

OBJECT_NAME    = SL-3 R/B
OBJECT_ID      = 1981-046B
CENTER_NAME    = EARTH
REF_FRAME      = TEME
TIME_SYSTEM    = UTC
MEAN_ELEMENT_THEORY = SGP/SGP4

EPOCH          = 2026-03-28T12:50:52.953504
MEAN_MOTION    = 15.42447536
ECCENTRICITY   = .00182508
INCLINATION    = 81.2284
RA_OF_ASC_NODE = 267.1024
ARG_OF_PERICENTER = 315.5457
MEAN_ANOMALY   = 44.4320

EPHEMERIS_TYPE = 0
CLASSIFICATION_TYPE = U
NORAD_CAT_ID   = 12465
ELEMENT_SET_NO = 999
REV_AT_EPOCH   = 44133
BSTAR          = .30863648E-3
MEAN_MOTION_DOT = .13467E-3
MEAN_MOTION_DDOT = 0

CCSDS_OMM_VERS = 2.0
CREATION_DATE  = 
ORIGINATOR     = 

OBJECT_NAME    = SL-3 R/B
OBJECT_ID      = 1981-103B
CENTER_NAME    = EARTH
REF_FRAME      = TEME
TIME_SYSTEM    = UTC
MEAN_ELEMENT_THEORY = SGP/SGP4

EPOCH          = 2026-03-28T13:56:59.735616
MEAN_MOTION    = 15.21594564
ECCENTRICITY   = .00127141
INCLINATION    = 81.1605
RA_OF_ASC_NODE = 191.2712
ARG_OF_PERICENTER = 218.6858
MEAN_ANOMALY   = 141.3464

EPHEMERIS_TYPE = 0
CLASSIFICATION_TYPE = U
NORAD_CAT_ID   = 12904
ELEMENT_SET_NO = 999
REV_AT_EPOCH   = 97610
BSTAR          = .26718422E-3
MEAN_MOTION_DOT = .6065E-4
MEAN_MOTION_DDOT = 0

CCSDS_OMM_VERS = 2.0
CREATION_DATE  = 
ORIGINATOR     = 

OBJECT_NAME    = SL-3 R/B
OBJECT_ID      = 1982-013B
CENTER_NAME    = EARTH
REF_FRAME      = TEME
TIME_SYSTEM    = UTC
MEAN_ELEMENT_THEORY = SGP/SGP4

EPOCH          = 2026-03-28T13:57:41.171328
MEAN_MOTION    = 15.22182216
ECCENTRICITY   = .00234914
INCLINATION    = 81.1740
RA_OF_ASC_NODE = 138.6269
ARG_OF_PERICENTER = 115.4333
MEAN_ANOMALY   = 244.9334

EPHEMERIS_TYPE = 0
CLASSIFICATION_TYPE = U
NORAD_CAT_ID   = 13068
ELEMENT_SET_NO = 999
REV_AT_EPOCH   = 40722
BSTAR          = .16133364E-3
MEAN_MOTION_DOT = .3756E-4
MEAN_MOTION_DDOT = 0

CCSDS_OMM_VERS = 2.0
CREATION_DATE  = 
ORIGINATOR     = 

OBJECT_NAME    = SL-3 R/B
OBJECT_ID      = 1982-039B
CENTER_NAME    = EARTH
REF_FRAME      = TEME
TIME_SYSTEM    = UTC
MEAN_ELEMENT_THEORY = SGP/SGP4

EPOCH          = 2026-03-28T12:58:44.745888
MEAN_MOTION    = 15.10183677
ECCENTRICITY   = .0028631
INCLINATION    = 81.1567
RA_OF_ASC_NODE = 194.2258
ARG_OF_PERICENTER = 262.0967
MEAN_ANOMALY   = 97.7008

EPHEMERIS_TYPE = 0
CLASSIFICATION_TYPE = U
NORAD_CAT_ID   = 13154
ELEMENT_SET_NO = 999
REV_AT_EPOCH   = 38448
BSTAR          = .17334962E-3
MEAN_MOTION_DOT = .288E-4
MEAN_MOTION_DDOT = 0

